CCSDS_OMM_VERS = 2.0
CREATION_DATE  = 
ORIGINATOR     = 

OBJECT_NAME    = STARLINK-36954
OBJECT_ID      = 2026-041T
CENTER_NAME    = EARTH
REF_FRAME      = TEME
TIME_SYSTEM    = UTC
MEAN_ELEMENT_THEORY = SGP/SGP4

EPOCH          = 2026-03-26T22:48:02.388096
MEAN_MOTION    = 15.75329972
ECCENTRICITY   = .00007046
INCLINATION    = 53.1608
RA_OF_ASC_NODE = 335.9866
ARG_OF_PERICENTER = 14.9263
MEAN_ANOMALY   = 345.1778

EPHEMERIS_TYPE = 0
CLASSIFICATION_TYPE = U
NORAD_CAT_ID   = 68057
ELEMENT_SET_NO = 999
REV_AT_EPOCH   = 394
BSTAR          = .17756289E-2
MEAN_MOTION_DOT = .281934E-2
MEAN_MOTION_DDOT = 0

CCSDS_OMM_VERS = 2.0
CREATION_DATE  = 
ORIGINATOR     = 

OBJECT_NAME    = STARLINK-36899
OBJECT_ID      = 2026-041U
CENTER_NAME    = EARTH
REF_FRAME      = TEME
TIME_SYSTEM    = UTC
MEAN_ELEMENT_THEORY = SGP/SGP4

EPOCH          = 2026-03-26T22:41:40.247808
MEAN_MOTION    = 15.82716816
ECCENTRICITY   = .00282605
INCLINATION    = 53.1607
RA_OF_ASC_NODE = 335.9589
ARG_OF_PERICENTER = 266.2011
MEAN_ANOMALY   = 93.5781

EPHEMERIS_TYPE = 0
CLASSIFICATION_TYPE = U
NORAD_CAT_ID   = 68058
ELEMENT_SET_NO = 999
REV_AT_EPOCH   = 394
BSTAR          = .26428505E-1
MEAN_MOTION_DOT = .7212428E-1
MEAN_MOTION_DDOT = 0

CCSDS_OMM_VERS = 2.0
CREATION_DATE  = 
ORIGINATOR     = 

OBJECT_NAME    = STARLINK-36917
OBJECT_ID      = 2026-041V
CENTER_NAME    = EARTH
REF_FRAME      = TEME
TIME_SYSTEM    = UTC
MEAN_ELEMENT_THEORY = SGP/SGP4

EPOCH          = 2026-03-26T20:57:04.419648
MEAN_MOTION    = 15.75410725
ECCENTRICITY   = .00006136
INCLINATION    = 53.1587
RA_OF_ASC_NODE = 336.2112
ARG_OF_PERICENTER = 179.3416
MEAN_ANOMALY   = 180.7605

EPHEMERIS_TYPE = 0
CLASSIFICATION_TYPE = U
NORAD_CAT_ID   = 68059
ELEMENT_SET_NO = 999
REV_AT_EPOCH   = 393
BSTAR          = .29032355E-2
MEAN_MOTION_DOT = .473823E-2
MEAN_MOTION_DDOT = 0

CCSDS_OMM_VERS = 2.0
CREATION_DATE  = 
ORIGINATOR     = 

OBJECT_NAME    = STARLINK-36959
OBJECT_ID      = 2026-041W
CENTER_NAME    = EARTH
REF_FRAME      = TEME
TIME_SYSTEM    = UTC
MEAN_ELEMENT_THEORY = SGP/SGP4

EPOCH          = 2026-03-26T22:35:26.661120
MEAN_MOTION    = 15.75277938
ECCENTRICITY   = .00007206
INCLINATION    = 53.1594
RA_OF_ASC_NODE = 335.9273
ARG_OF_PERICENTER = 46.9203
MEAN_ANOMALY   = 313.1878

EPHEMERIS_TYPE = 0
CLASSIFICATION_TYPE = U
NORAD_CAT_ID   = 68060
ELEMENT_SET_NO = 999
REV_AT_EPOCH   = 394
BSTAR          = .21334979E-2
MEAN_MOTION_DOT = .340503E-2
MEAN_MOTION_DDOT = 0

CCSDS_OMM_VERS = 2.0
CREATION_DATE  = 
ORIGINATOR     = 

OBJECT_NAME    = STARLINK-36915
OBJECT_ID      = 2026-041X
CENTER_NAME    = EARTH
REF_FRAME      = TEME
TIME_SYSTEM    = UTC
MEAN_ELEMENT_THEORY = SGP/SGP4

EPOCH          = 2026-03-26T22:09:17.980128
MEAN_MOTION    = 15.75349302
ECCENTRICITY   = .00003644
INCLINATION    = 53.1599
RA_OF_ASC_NODE = 335.8065
ARG_OF_PERICENTER = 115.6232
MEAN_ANOMALY   = 244.4826

EPHEMERIS_TYPE = 0
CLASSIFICATION_TYPE = U
NORAD_CAT_ID   = 68061
ELEMENT_SET_NO = 999
REV_AT_EPOCH   = 394
BSTAR          = .24164692E-2
MEAN_MOTION_DOT = .389241E-2
MEAN_MOTION_DDOT = 0

CCSDS_OMM_VERS = 2.0
CREATION_DATE  = 
ORIGINATOR     = 

OBJECT_NAME    = STARLINK-36952
OBJECT_ID      = 2026-041Y
CENTER_NAME    = EARTH
REF_FRAME      = TEME
TIME_SYSTEM    = UTC
MEAN_ELEMENT_THEORY = SGP/SGP4

EPOCH          = 2026-03-26T21:10:08.709600
MEAN_MOTION    = 15.75289052
ECCENTRICITY   = .00008672
INCLINATION    = 53.1605
RA_OF_ASC_NODE = 336.2711
ARG_OF_PERICENTER = 74.3626
MEAN_ANOMALY   = 285.7490

EPHEMERIS_TYPE = 0
CLASSIFICATION_TYPE = U
NORAD_CAT_ID   = 68062
ELEMENT_SET_NO = 999
REV_AT_EPOCH   = 393
BSTAR          = .22838551E-2
MEAN_MOTION_DOT = .365829E-2
MEAN_MOTION_DDOT = 0

CCSDS_OMM_VERS = 2.0
CREATION_DATE  = 
ORIGINATOR     = 

OBJECT_NAME    = STARLINK-37000
OBJECT_ID      = 2026-041Z
CENTER_NAME    = EARTH
REF_FRAME      = TEME
TIME_SYSTEM    = UTC
MEAN_ELEMENT_THEORY = SGP/SGP4

EPOCH          = 2026-03-26T22:00:01.999584
MEAN_MOTION    = 15.75247734
ECCENTRICITY   = .00010007
INCLINATION    = 53.1583
RA_OF_ASC_NODE = 335.8925
ARG_OF_PERICENTER = 118.2270
MEAN_ANOMALY   = 179.6128

EPHEMERIS_TYPE = 0
CLASSIFICATION_TYPE = U
NORAD_CAT_ID   = 68063
ELEMENT_SET_NO = 999
REV_AT_EPOCH   = 514
BSTAR          = -.1496039E-3
MEAN_MOTION_DOT = -.23516E-3
MEAN_MOTION_DDOT = 0

CCSDS_OMM_VERS = 2.0
CREATION_DATE  = 
ORIGINATOR     = 

OBJECT_NAME    = STARLINK-36996
OBJECT_ID      = 2026-041AA
CENTER_NAME    = EARTH
REF_FRAME      = TEME
TIME_SYSTEM    = UTC
MEAN_ELEMENT_THEORY = SGP/SGP4

EPOCH          = 2026-03-26T22:00:01.999584
MEAN_MOTION    = 15.75249172
ECCENTRICITY   = .00010594
INCLINATION    = 53.1592
RA_OF_ASC_NODE = 335.6282
ARG_OF_PERICENTER = 106.5121
MEAN_ANOMALY   = 320.1054

EPHEMERIS_TYPE = 0
CLASSIFICATION_TYPE = U
NORAD_CAT_ID   = 68064
ELEMENT_SET_NO = 999
REV_AT_EPOCH   = 514
BSTAR          = -.35852312E-3
MEAN_MOTION_DOT = -.55262E-3
MEAN_MOTION_DDOT = 0

CCSDS_OMM_VERS = 2.0
CREATION_DATE  = 
ORIGINATOR     = 

OBJECT_NAME    = STARLINK-36836
OBJECT_ID      = 2026-041AB
CENTER_NAME    = EARTH
REF_FRAME      = TEME
TIME_SYSTEM    = UTC
MEAN_ELEMENT_THEORY = SGP/SGP4

EPOCH          = 2026-03-25T04:39:00.358560
MEAN_MOTION    = 15.81001064
ECCENTRICITY   = .00013014
INCLINATION    = 53.1589
RA_OF_ASC_NODE = 344.2116
ARG_OF_PERICENTER = 42.0148
MEAN_ANOMALY   = 318.0975

EPHEMERIS_TYPE = 0
CLASSIFICATION_TYPE = U
NORAD_CAT_ID   = 68065
ELEMENT_SET_NO = 999
REV_AT_EPOCH   = 367
BSTAR          = .19041787E-2
MEAN_MOTION_DOT = .395165E-2
MEAN_MOTION_DDOT = 0

CCSDS_OMM_VERS = 2.0
CREATION_DATE  = 
ORIGINATOR     = 

OBJECT_NAME    = STARLINK-36976
OBJECT_ID      = 2026-041AC
CENTER_NAME    = EARTH
REF_FRAME      = TEME
TIME_SYSTEM    = UTC
MEAN_ELEMENT_THEORY = SGP/SGP4

EPOCH          = 2026-03-26T20:57:32.603328
MEAN_MOTION    = 15.75368345
ECCENTRICITY   = .00008698
INCLINATION    = 53.1589
RA_OF_ASC_NODE = 336.2112
ARG_OF_PERICENTER = 168.1890
MEAN_ANOMALY   = 191.9151

EPHEMERIS_TYPE = 0
CLASSIFICATION_TYPE = U
NORAD_CAT_ID   = 68066
ELEMENT_SET_NO = 999
REV_AT_EPOCH   = 393
BSTAR          = .21955141E-2
MEAN_MOTION_DOT = .352299E-2
MEAN_MOTION_DDOT = 0

CCSDS_OMM_VERS = 2.0
CREATION_DATE  = 
ORIGINATOR     = 

OBJECT_NAME    = STARLINK-36929
OBJECT_ID      = 2026-041AD
CENTER_NAME    = EARTH
REF_FRAME      = TEME
TIME_SYSTEM    = UTC
MEAN_ELEMENT_THEORY = SGP/SGP4

EPOCH          = 2026-03-26T22:34:58.172448
MEAN_MOTION    = 15.75285393
ECCENTRICITY   = .00014375
INCLINATION    = 53.1591
RA_OF_ASC_NODE = 335.9243
ARG_OF_PERICENTER = 27.1149
MEAN_ANOMALY   = 332.9946

EPHEMERIS_TYPE = 0
CLASSIFICATION_TYPE = U
NORAD_CAT_ID   = 68067
ELEMENT_SET_NO = 999
REV_AT_EPOCH   = 394
BSTAR          = .14950368E-2
MEAN_MOTION_DOT = .235501E-2
MEAN_MOTION_DDOT = 0

CCSDS_OMM_VERS = 2.0
CREATION_DATE  = 
ORIGINATOR     = 

OBJECT_NAME    = STARLINK-36990
OBJECT_ID      = 2026-041AE
CENTER_NAME    = EARTH
REF_FRAME      = TEME
TIME_SYSTEM    = UTC
MEAN_ELEMENT_THEORY = SGP/SGP4

EPOCH          = 2026-03-26T21:34:48.851328
MEAN_MOTION    = 15.80951170
ECCENTRICITY   = .00013794
INCLINATION    = 53.1592
RA_OF_ASC_NODE = 335.6466
ARG_OF_PERICENTER = 91.5941
MEAN_ANOMALY   = 268.5240

EPHEMERIS_TYPE = 0
CLASSIFICATION_TYPE = U
NORAD_CAT_ID   = 68068
ELEMENT_SET_NO = 999
REV_AT_EPOCH   = 394
BSTAR          = .15406897E-2
MEAN_MOTION_DOT = .315907E-2
MEAN_MOTION_DDOT = 0

