STARLINK-36954          
1 68057U 26041T   26085.95002764  .00281934  00000+0  17756-2 0  9997
2 68057  53.1608 335.9866 0000704  14.9263 345.1778 15.75329972  3948
STARLINK-36899          
1 68058U 26041U   26085.94560472  .07212428  00000+0  26429-1 0  9997
2 68058  53.1607 335.9589 0028260 266.2011  93.5781 15.82716816  3943
STARLINK-36917          
1 68059U 26041V   26085.87296782  .00473823  00000+0  29032-2 0  9995
2 68059  53.1587 336.2112 0000613 179.3416 180.7605 15.75410725  3937
STARLINK-36959          
1 68060U 26041W   26085.94128080  .00340503  00000+0  21335-2 0  9996
2 68060  53.1594 335.9273 0000720  46.9203 313.1878 15.75277938  3945
STARLINK-36915          
1 68061U 26041X   26085.92312477  .00389241  00000+0  24165-2 0  9996
2 68061  53.1599 335.8065 0000364 115.6232 244.4826 15.75349302  3943
STARLINK-36952          
1 68062U 26041Y   26085.88204525  .00365829  00000+0  22839-2 0  9998
2 68062  53.1605 336.2711 0000867  74.3626 285.7490 15.75289052  3930
STARLINK-37000          
1 68063U 26041Z   26085.91668981 -.00023516  00000+0 -14960-3 0  9996
2 68063  53.1583 335.8925 0001000 118.2270 179.6128 15.75247734  5146
STARLINK-36996          
1 68064U 26041AA  26085.91668981 -.00055262  00000+0 -35852-3 0  9993
2 68064  53.1592 335.6282 0001059 106.5121 320.1054 15.75249172  5149
STARLINK-36836          
1 68065U 26041AB  26084.19375415  .00395165  00000+0  19042-2 0  9999
2 68065  53.1589 344.2116 0001301  42.0148 318.0975 15.81001064  3678
STARLINK-36976          
1 68066U 26041AC  26085.87329402  .00352299  00000+0  21955-2 0  9998
2 68066  53.1589 336.2112 0000869 168.1890 191.9151 15.75368345  3932
STARLINK-36929          
1 68067U 26041AD  26085.94095107  .00235501  00000+0  14950-2 0  9992
2 68067  53.1591 335.9243 0001437  27.1149 332.9946 15.75285393  3941
STARLINK-36990          
1 68068U 26041AE  26085.89917652  .00315907  00000+0  15407-2 0  9992
2 68068  53.1592 335.6466 0001379  91.5941 268.5240 15.80951170  3947
